NORAD_CAT_ID,OBJECT_NAME,OBJECT_TYPE,EPOCH,MEAN_MOTION,ECCENTRICITY,INCLINATION,RA_OF_ASC_NODE,ARG_OF_PERICENTER,MEAN_ANOMALY,BSTAR,MEAN_MOTION_DOT,MEAN_MOTION_DDOT,TLE_LINE0,TLE_LINE1,TLE_LINE2,SEMIMAJOR_AXIS,PERIOD,APOGEE,PERIGEE,DECAYED
53786.0,STARLINK-4631,PAYLOAD,2023-04-29 19:59:50,15.08854378,9.87e-05,53.2157,274.4275,104.8953,255.2149,0.00012889,1.765e-05,0.0,0 STARLINK-4631,1 53786U 22111P   23119.83322368  .00001765  00000-0  12889-3 0  9997,2 53786  53.2157 274.4275 0000987 104.8953 255.2149 15.08854378 35295,6917.836,95.437,540.384,539.019,0.0
53786.0,STARLINK-4631,PAYLOAD,2023-04-30 13:29:05,15.08844765,0.0001108,53.2155,271.1553,105.6179,254.4935,-3.1188e-05,-7.84e-06,0.0,0 STARLINK-4631,1 53786U 22111P   23120.56186895 -.00000784  00000-0 -31188-4 0  9998,2 53786  53.2155 271.1553 0001108 105.6179 254.4935 15.08844765 36217,6917.866,95.437,540.497,538.964,0.0
53786.0,STARLINK-4631,PAYLOAD,2023-04-30 15:04:28,15.08843669,0.0001054,53.2157,270.858,107.0114,253.0994,-4.2203e-05,-9.59e-06,0.0,0 STARLINK-4631,1 53786U 22111P   23120.62810926 -.00000959  00000-0 -42203-4 0  9998,2 53786  53.2157 270.8580 0001054 107.0114 253.0994 15.08843669 35413,6917.869,95.437,540.463,539.005,0.0
53786.0,STARLINK-4631,PAYLOAD,2023-05-01 13:19:52,15.08843141,9.94e-05,53.2159,266.6946,107.0846,253.0255,-2.3959e-05,-6.69e-06,0.0,0 STARLINK-4631,1 53786U 22111P   23121.55546580 -.00000669  00000-0 -23959-4 0  9998,2 53786  53.2159 266.6946 0000994 107.0846 253.0255 15.08843141 36368,6917.871,95.437,540.423,539.048,0.0
53786.0,STARLINK-4631,PAYLOAD,2023-05-01 18:06:01,15.08842752,9.66e-05,53.2161,265.8025,105.7902,254.3196,-2.3716e-05,-6.65e-06,0.0,0 STARLINK-4631,1 53786U 22111P   23121.75418548 -.00000665  00000-0 -23716-4 0  9999,2 53786  53.2161 265.8025 0000966 105.7902 254.3196 15.08842752 35585,6917.872,95.437,540.405,539.069,0.0
53786.0,STARLINK-4631,PAYLOAD,2023-05-02 13:10:39,15.08836987,8.69e-05,53.2159,262.2356,93.7952,266.314,5.1037e-05,5.25e-06,0.0,0 STARLINK-4631,1 53786U 22111P   23122.54906727  .00000525  00000-0  51037-4 0  9998,2 53786  53.2159 262.2356 0000869  93.7952 266.3140 15.08836987 36512,6917.89,95.438,540.356,539.153,0.0
53786.0,STARLINK-4631,PAYLOAD,2023-05-02 17:56:48,15.08839385,8.79e-05,53.216,261.3439,83.462,276.6472,6.7659e-05,7.89e-06,0.0,0 STARLINK-4631,1 53786U 22111P   23122.74778573  .00000789  00000-0  67659-4 0  9995,2 53786  53.2160 261.3439 0000879  83.4620 276.6472 15.08839385 36545,6917.882,95.438,540.355,539.139,0.0
53786.0,STARLINK-4631,PAYLOAD,2023-05-03 01:53:44,15.08836112,8.93e-05,53.2162,259.8575,84.0445,276.0649,3.0625e-05,2e-06,0.0,0 STARLINK-4631,1 53786U 22111P   23123.07898944  .00000200  00000-0  30625-4 0  9998,2 53786  53.2162 259.8575 0000893  84.0445 276.0649 15.08836112 35788,6917.892,95.438,540.375,539.14,0.0
53786.0,STARLINK-4631,PAYLOAD,2023-05-03 13:01:26,15.08836872,8.82e-05,53.2163,257.776,84.3236,275.7856,2.2267e-05,6.7e-07,0.0,0 STARLINK-4631,1 53786U 22111P   23123.54267028  .00000067  00000-0  22267-4 0  9997,2 53786  53.2163 257.7760 0000882  84.3236 275.7856 15.08836872 36668,6917.89,95.438,540.365,539.145,0.0
53786.0,STARLINK-4631,PAYLOAD,2023-05-03 19:22:59,15.0883937,8.33e-05,53.2158,256.5865,87.2907,272.818,3.8791e-05,3.3e-06,0.0,0 STARLINK-4631,1 53786U 22111P   23123.80762813  .00000330  00000-0  38791-4 0  9990,2 53786  53.2158 256.5865 0000833  87.2907 272.8180 15.08839370 36707,6917.882,95.438,540.324,539.171,0.0
53786.0,STARLINK-4631,PAYLOAD,2023-05-04 12:52:13,15.08873571,7.61e-05,53.2154,253.315,69.4386,290.6688,-0.00041781,-6.937e-05,0.0,0 STARLINK-4631,1 53786U 22111P   23124.53626309 -.00006937  00000-0 -41781-3 0  9993,2 53786  53.2154 253.3150 0000761  69.4386 290.6688 15.08873571 36812,6917.778,95.435,540.169,539.116,0.0
53786.0,STARLINK-4631,PAYLOAD,2023-05-04 14:27:36,15.08840007,7.08e-05,53.2157,253.0177,78.9475,281.1596,2.3168e-05,8.1e-07,0.0,0 STARLINK-4631,1 53786U 22111P   23124.60250912  .00000081  00000-0  23168-4 0  9996,2 53786  53.2157 253.0177 0000708  78.9475 281.1596 15.08840007 36019,6917.88,95.438,540.235,539.256,0.0
53786.0,STARLINK-4631,PAYLOAD,2023-05-04 16:02:59,15.08841732,5.89e-05,53.2156,252.7204,51.4884,308.6161,4.4844e-06,-2.16e-06,0.0,0 STARLINK-4631,1 53786U 22111P   23124.66874864 -.00000216  00000-0  44844-5 0  9996,2 53786  53.2156 252.7204 0000589  51.4884 308.6161 15.08841732 36831,6917.875,95.437,540.148,539.333,0.0
53786.0,STARLINK-4631,PAYLOAD,2023-05-05 15:53:46,15.08840174,7.96e-05,53.2163,248.26,75.0573,285.0507,4.5234e-05,4.32e-06,0.0,0 STARLINK-4631,1 53786U 22111P   23125.66234936  .00000432  00000-0  45234-4 0  9999,2 53786  53.2163 248.2600 0000796  75.0573 285.0507 15.08840174 36174,6917.88,95.438,540.296,539.194,0.0
53786.0,STARLINK-4631,PAYLOAD,2023-05-06 12:33:48,15.08837431,8.69e-05,53.2153,244.3937,82.4779,277.6312,2.8521e-05,1.66e-06,0.0,0 STARLINK-4631,1 53786U 22111P   23126.52347355  .00000166  00000-0  28521-4 0  9999,2 53786  53.2153 244.3937 0000869  82.4779 277.6312 15.08837431 37112,6917.888,95.438,540.354,539.152,0.0
53786.0,STARLINK-4631,PAYLOAD,2023-05-07 01:16:53,15.08837648,8.63e-05,53.2155,242.0144,81.8905,278.2185,2.8042e-05,1.59e-06,0.0,0 STARLINK-4631,1 53786U 22111P   23127.05339396  .00000159  00000-0  28042-4 0  9994,2 53786  53.2155 242.0144 0000863  81.8905 278.2185 15.08837648 36380,6917.888,95.438,540.35,539.156,0.0
53786.0,STARLINK-4631,PAYLOAD,2023-05-07 12:24:34,15.08845054,8.75e-05,53.2156,239.9326,81.7893,278.3199,8.0882e-05,1e-05,0.0,0 STARLINK-4631,1 53786U 22111P   23127.51706618  .00001000  00000-0  80882-4 0  9996,2 53786  53.2156 239.9326 0000875  81.7893 278.3199 15.08845054 36450,6917.865,95.437,540.335,539.125,0.0
53786.0,STARLINK-4631,PAYLOAD,2023-05-07 13:59:57,15.08846224,8.71e-05,53.2156,239.6352,81.5138,278.5953,9.3807e-05,1.206e-05,0.0,0 STARLINK-4631,1 53786U 22111P   23127.58330491  .00001206  00000-0  93807-4 0  9994,2 53786  53.2156 239.6352 0000871  81.5138 278.5953 15.08846224 37273,6917.861,95.437,540.329,539.124,0.0
53786.0,STARLINK-4631,PAYLOAD,2023-05-08 12:15:22,15.08834797,8.69e-05,53.2156,235.4726,74.3251,285.7837,3.4453e-05,2.61e-06,0.0,0 STARLINK-4631,1 53786U 22111P   23128.51067427  .00000261  00000-0  34453-4 0  9996,2 53786  53.2156 235.4726 0000869  74.3251 285.7837 15.08834797 36604,6917.896,95.438,540.362,539.16,0.0
53786.0,STARLINK-4631,PAYLOAD,2023-05-08 13:50:45,15.08837047,8.69e-05,53.216,235.1746,72.3578,287.7509,9.2764e-06,-1.4e-06,0.0,0 STARLINK-4631,1 53786U 22111P   23128.57691380 -.00000140  00000-0  92764-5 0  9990,2 53786  53.2160 235.1746 0000869  72.3578 287.7509 15.08837047 37428,6917.889,95.438,540.356,539.153,0.0
53786.0,STARLINK-4631,PAYLOAD,2023-05-09 13:41:32,15.08839129,9.14e-05,53.2157,230.7147,72.1287,287.9805,3.4249e-05,2.57e-06,0.0,0 STARLINK-4631,1 53786U 22111P   23129.57051211  .00000257  00000-0  34249-4 0  9995,2 53786  53.2157 230.7147 0000914  72.1287 287.9805 15.08839129 37576,6917.883,95.438,540.38,539.116,0.0
53786.0,STARLINK-4631,PAYLOAD,2023-05-10 11:56:56,15.08834779,9.35e-05,53.2158,226.553,71.8349,288.2745,3.482e-05,2.66e-06,0.0,0 STARLINK-4631,1 53786U 22111P   23130.49787684  .00000266  00000-0  34820-4 0  9993,2 53786  53.2158 226.5530 0000935  71.8349 288.2745 15.08834779 37713,6917.896,95.438,540.408,539.115,0.0
53786.0,STARLINK-4631,PAYLOAD,2023-05-10 13:32:19,15.08835991,9.41e-05,53.2159,226.2557,71.9058,288.2037,4.4259e-05,4.17e-06,0.0,0 STARLINK-4631,1 53786U 22111P   23130.56411595  .00000417  00000-0  44259-4 0  9991,2 53786  53.2159 226.2557 0000941  71.9058 288.2037 15.08835991 37727,6917.893,95.438,540.409,539.107,0.0
53786.0,STARLINK-4631,PAYLOAD,2023-05-10 23:04:38,15.08835078,9.71e-05,53.216,224.4709,71.2111,288.8986,3.3406e-05,2.44e-06,0.0,0 STARLINK-4631,1 53786U 22111P   23130.96155792  .00000244  00000-0  33406-4 0  9999,2 53786  53.2160 224.4709 0000971  71.2111 288.8986 15.08835078 36975,6917.895,95.438,540.432,539.089,0.0
53786.0,STARLINK-4631,PAYLOAD,2023-05-11 10:12:23,15.0881029,9.71e-05,53.2159,222.3897,84.2455,275.8648,-0.00018424,-3.216e-05,0.0,0 STARLINK-4631,1 53786U 22111P   23131.42526630 -.00003216  00000-0 -18424-3 0  9990,2 53786  53.2159 222.3897 0000971  84.2455 275.8648 15.08810290 37851,6917.971,95.439,540.508,539.164,0.0
53786.0,STARLINK-4631,PAYLOAD,2023-05-11 11:47:48,15.08782357,0.0001074,53.2159,222.0923,77.6652,282.446,-0.00041597,-6.891e-05,0.0,0 STARLINK-4631,1 53786U 22111P   23131.49153217 -.00006891  00000-0 -41597-3 0  9993,2 53786  53.2159 222.0923 0001074  77.6652 282.4460 15.08782357 37058,6918.057,95.441,540.665,539.179,0.0
53786.0,STARLINK-4631,PAYLOAD,2023-05-11 13:23:11,15.08779993,0.0001118,53.2158,221.795,71.5773,288.534,-0.00042898,-7.097e-05,0.0,0 STARLINK-4631,1 53786U 22111P   23131.55777641 -.00007097  00000-0 -42898-3 0  9997,2 53786  53.2158 221.7950 0001118  71.5773 288.5340 15.08779993 37875,6918.064,95.441,540.702,539.155,0.0
53786.0,STARLINK-4631,PAYLOAD,2023-05-11 22:55:29,15.08806667,0.0001053,53.2157,220.0115,65.358,294.7522,-0.00016311,-2.88e-05,0.0,0 STARLINK-4631,1 53786U 22111P   23131.95520034 -.00002880  00000-0 -16311-3 0  9999,2 53786  53.2157 220.0115 0001053  65.3580 294.7522 15.08806667 37122,6917.982,95.44,540.576,539.119,0.0
53786.0,STARLINK-4631,PAYLOAD,2023-05-13 13:04:42,15.08820405,0.0001519,53.2157,212.8742,58.2355,301.8785,0.00056235,8.668e-05,0.0,0 STARLINK-4631,1 53786U 22111P   23133.54493706  .00008668  00000-0  56235-3 0  9998,2 53786  53.2157 212.8742 0001519  58.2355 301.8785 15.08820405 37368,6917.94,95.439,540.856,538.754,0.0
53786.0,STARLINK-4631,PAYLOAD,2023-05-14 12:55:28,15.08861455,0.0001707,53.2158,208.4131,52.016,308.0986,7.7899e-05,9.53e-06,0.0,0 STARLINK-4631,1 53786U 22111P   23134.53852427  .00000953  00000-0  77899-4 0  9996,2 53786  53.2158 208.4131 0001707  52.0160 308.0986 15.08861455 37516,6917.815,95.436,540.861,538.499,0.0
